[
    {
        "Altitude(m)": 703718.860414849,
        "Argument of Periapsis(deg)": 0.010251109067964361,
        "Eccentricity": 0.0,
        "Inclination(deg)": 45.0,
        "Latitude(deg)": 26.328295288128945,
        "Longitude(deg)": 74.82237206336544,
        "Mean Anomaly(deg)": 141.28899498273276,
        "RAAN(deg)": 24.990323252687617,
        "Satellite Name": "Constellation 1 118",
        "Satellite Number": 118,
        "Semi-Major Axis(m)": 7083131.272910544,
        "Time(s)": 171
    },
    {
        "Altitude(m)": 703713.7647193595,
        "Argument of Periapsis(deg)": 0.010311057074209765,
        "Eccentricity": 0.0,
        "Inclination(deg)": 45.0,
        "Latitude(deg)": 26.290723696676743,
        "Longitude(deg)": 74.87154772522463,
        "Mean Anomaly(deg)": 141.34969612298264,
        "RAAN(deg)": 24.99026666352205,
        "Satellite Name": "Constellation 1 118",
        "Satellite Number": 118,
        "Semi-Major Axis(m)": 7083131.272910544,
        "Time(s)": 172
    },
    {
        "Altitude(m)": 703708.6772762681,
        "Argument of Periapsis(deg)": 0.010371005080455171,
        "Eccentricity": 0.0,
        "Inclination(deg)": 45.0,
        "Latitude(deg)": 26.253132148382832,
        "Longitude(deg)": 74.92068906461611,
        "Mean Anomaly(deg)": 141.41039726323257,
        "RAAN(deg)": 24.990210074356476,
        "Satellite Name": "Constellation 1 118",
        "Satellite Number": 118,
        "Semi-Major Axis(m)": 7083131.272910544,
        "Time(s)": 173
    },
    {
        "Altitude(m)": 703703.5981234064,
        "Argument of Periapsis(deg)": 0.010430953086700577,
        "Eccentricity": 0.0,
        "Inclination(deg)": 45.0,
        "Latitude(deg)": 26.215520688498763,
        "Longitude(deg)": 74.96979614216498,
        "Mean Anomaly(deg)": 141.47109840348244,
        "RAAN(deg)": 24.99015348519091,
        "Satellite Name": "Constellation 1 118",
        "Satellite Number": 118,
        "Semi-Major Axis(m)": 7083131.272910544,
        "Time(s)": 174
    },
    {
        "Altitude(m)": 703698.5272985877,
        "Argument of Periapsis(deg)": 0.010490901092945983,
        "Eccentricity": 0.0,
        "Inclination(deg)": 45.0,
        "Latitude(deg)": 26.177889362209758,
        "Longitude(deg)": 75.01886901850177,
        "Mean Anomaly(deg)": 141.53179954373238,
        "RAAN(deg)": 24.99009689602534,
        "Satellite Name": "Constellation 1 118",
        "Satellite Number": 118,
        "Semi-Major Axis(m)": 7083131.272910544,
        "Time(s)": 175
    },
    {
        "Altitude(m)": 703693.4648395933,
        "Argument of Periapsis(deg)": 0.010550849099191389,
        "Eccentricity": 0.0,
        "Inclination(deg)": 45.0,
        "Latitude(deg)": 26.1402382146353,
        "Longitude(deg)": 75.06790775426164,
        "Mean Anomaly(deg)": 141.59250068398222,
        "RAAN(deg)": 24.990040306859772,
        "Satellite Name": "Constellation 1 118",
        "Satellite Number": 118,
        "Semi-Major Axis(m)": 7083131.272910544,
        "Time(s)": 176
    },
    {
        "Altitude(m)": 703688.4107841884,
        "Argument of Periapsis(deg)": 0.010610797105436795,
        "Eccentricity": 0.0,
        "Inclination(deg)": 45.0,
        "Latitude(deg)": 26.102567290828723,
        "Longitude(deg)": 75.11691241008457,
        "Mean Anomaly(deg)": 141.65320182423216,
        "RAAN(deg)": 24.9899837176942,
        "Satellite Name": "Constellation 1 118",
        "Satellite Number": 118,
        "Semi-Major Axis(m)": 7083131.272910544,
        "Time(s)": 177
    },
    {
        "Altitude(m)": 703683.3651701027,
        "Argument of Periapsis(deg)": 0.0106707451116822,
        "Eccentricity": 0.0,
        "Inclination(deg)": 45.0,
        "Latitude(deg)": 26.064876635777566,
        "Longitude(deg)": 75.16588287851741,
        "Mean Anomaly(deg)": 141.71390296448203,
        "RAAN(deg)": 24.989927128528628,
        "Satellite Name": "Constellation 1 118",
        "Satellite Number": 118,
        "Semi-Major Axis(m)": 7083131.272910544,
        "Time(s)": 178
    },
    {
        "Altitude(m)": 703678.3280350481,
        "Argument of Periapsis(deg)": 0.010730693117927606,
        "Eccentricity": 0.0,
        "Inclination(deg)": 45.0,
        "Latitude(deg)": 26.02716629440388,
        "Longitude(deg)": 75.21481955640255,
        "Mean Anomaly(deg)": 141.77460410473196,
        "RAAN(deg)": 24.98987053936306,
        "Satellite Name": "Constellation 1 118",
        "Satellite Number": 118,
        "Semi-Major Axis(m)": 7083131.272910544,
        "Time(s)": 179
    },
    {
        "Altitude(m)": 703673.2994167105,
        "Argument of Periapsis(deg)": 0.01079064112417301,
        "Eccentricity": 0.0,
        "Inclination(deg)": 45.0,
        "Latitude(deg)": 25.989436311563797,
        "Longitude(deg)": 75.26372233629408,
        "Mean Anomaly(deg)": 141.83530524498184,
        "RAAN(deg)": 24.98981395019749,
        "Satellite Name": "Constellation 1 118",
        "Satellite Number": 118,
        "Semi-Major Axis(m)": 7083131.272910544,
        "Time(s)": 180
    },
    {
        "Altitude(m)": 703668.2793527468,
        "Argument of Periapsis(deg)": 0.010850589130418416,
        "Eccentricity": 0.0,
        "Inclination(deg)": 45.0,
        "Latitude(deg)": 25.951686732048053,
        "Longitude(deg)": 75.31259127884655,
        "Mean Anomaly(deg)": 141.89600638523174,
        "RAAN(deg)": 24.989757361031923,
        "Satellite Name": "Constellation 1 118",
        "Satellite Number": 118,
        "Semi-Major Axis(m)": 7083131.272910544,
        "Time(s)": 181
    },
    {
        "Altitude(m)": 703663.2678807917,
        "Argument of Periapsis(deg)": 0.01091053713666382,
        "Eccentricity": 0.0,
        "Inclination(deg)": 45.0,
        "Latitude(deg)": 25.913917600581858,
        "Longitude(deg)": 75.36142644471715,
        "Mean Anomaly(deg)": 141.95670752548162,
        "RAAN(deg)": 24.989700771866353,
        "Satellite Name": "Constellation 1 118",
        "Satellite Number": 118,
        "Semi-Major Axis(m)": 7083131.272910544,
        "Time(s)": 182
    },
    {
        "Altitude(m)": 703658.2650384571,
        "Argument of Periapsis(deg)": 0.010970485142909228,
        "Eccentricity": 0.0,
        "Inclination(deg)": 45.0,
        "Latitude(deg)": 25.876128961825028,
        "Longitude(deg)": 75.41022789456566,
        "Mean Anomaly(deg)": 142.01740866573152,
        "RAAN(deg)": 24.98964418270078,
        "Satellite Name": "Constellation 1 118",
        "Satellite Number": 118,
        "Semi-Major Axis(m)": 7083131.272910544,
        "Time(s)": 183
    },
    {
        "Altitude(m)": 703653.2708633131,
        "Argument of Periapsis(deg)": 0.011030433149154634,
        "Eccentricity": 0.0,
        "Inclination(deg)": 45.0,
        "Latitude(deg)": 25.83832086037216,
        "Longitude(deg)": 75.45899568905384,
        "Mean Anomaly(deg)": 142.07810980598143,
        "RAAN(deg)": 24.989587593535212,
        "Satellite Name": "Constellation 1 118",
        "Satellite Number": 118,
        "Semi-Major Axis(m)": 7083131.272910544,
        "Time(s)": 184
    },
    {
        "Altitude(m)": 703648.2853929204,
        "Argument of Periapsis(deg)": 0.01109038115540004,
        "Eccentricity": 0.0,
        "Inclination(deg)": 45.0,
        "Latitude(deg)": 25.800493340752684,
        "Longitude(deg)": 75.5077297207477,
        "Mean Anomaly(deg)": 142.13881094623136,
        "RAAN(deg)": 24.989531004369645,
        "Satellite Name": "Constellation 1 118",
        "Satellite Number": 118,
        "Semi-Major Axis(m)": 7083131.272910544,
        "Time(s)": 185
    },
    {
        "Altitude(m)": 703643.3086648113,
        "Argument of Periapsis(deg)": 0.011150329161645444,
        "Eccentricity": 0.0,
        "Inclination(deg)": 45.0,
        "Latitude(deg)": 25.762646447431106,
        "Longitude(deg)": 75.55643038650662,
        "Mean Anomaly(deg)": 142.19951208648123,
        "RAAN(deg)": 24.989474415204075,
        "Satellite Name": "Constellation 1 118",
        "Satellite Number": 118,
        "Semi-Major Axis(m)": 7083131.272910544,
        "Time(s)": 186
    },
    {
        "Altitude(m)": 703638.3407164809,
        "Argument of Periapsis(deg)": 0.01121027716789085,
        "Eccentricity": 0.0,
        "Inclination(deg)": 45.0,
        "Latitude(deg)": 25.724780224806725,
        "Longitude(deg)": 75.60509757889912,
        "Mean Anomaly(deg)": 142.2602132267311,
        "RAAN(deg)": 24.98941782603851,
        "Satellite Name": "Constellation 1 118",
        "Satellite Number": 118,
        "Semi-Major Axis(m)": 7083131.272910544,
        "Time(s)": 187
    },
    {
        "Altitude(m)": 703633.3815854093,
        "Argument of Periapsis(deg)": 0.011270225174136258,
        "Eccentricity": 0.0,
        "Inclination(deg)": 45.0,
        "Latitude(deg)": 25.686894717214045,
        "Longitude(deg)": 75.65373135859176,
        "Mean Anomaly(deg)": 142.32091436698101,
        "RAAN(deg)": 24.989361236872934,
        "Satellite Name": "Constellation 1 118",
        "Satellite Number": 118,
        "Semi-Major Axis(m)": 7083131.272910544,
        "Time(s)": 188
    },
    {
        "Altitude(m)": 703628.4313090371,
        "Argument of Periapsis(deg)": 0.011330173180381662,
        "Eccentricity": 0.0,
        "Inclination(deg)": 45.0,
        "Latitude(deg)": 25.648989968922837,
        "Longitude(deg)": 75.70233178625116,
        "Mean Anomaly(deg)": 142.38161550723095,
        "RAAN(deg)": 24.989304647707364,
        "Satellite Name": "Constellation 1 118",
        "Satellite Number": 118,
        "Semi-Major Axis(m)": 7083131.272910544,
        "Time(s)": 189
    }
]